COMMENT,ORIGINATOR,NORAD_CAT_ID,OBJECT_NAME,OBJECT_TYPE,CLASSIFICATION_TYPE,INTLDES,EPOCH,EPOCH_MICROSECONDS,MEAN_MOTION,ECCENTRICITY,INCLINATION,RA_OF_ASC_NODE,ARG_OF_PERICENTER,MEAN_ANOMALY,EPHEMERIS_TYPE,ELEMENT_SET_NO,REV_AT_EPOCH,BSTAR,MEAN_MOTION_DOT,MEAN_MOTION_DDOT,FILE,TLE_LINE0,TLE_LINE1,TLE_LINE2,OBJECT_ID,OBJECT_NUMBER,SEMIMAJOR_AXIS,PERIOD,APOGEE,PERIGEE,DECAYED,date
GENERATED VIA SPACETRACK.ORG API,18 SPCS,52183,SPACEBEE-133,PAYLOAD,U,22033AC,2023/1/1 4:26,420896,15.29268168,0.0008739,97.368,84.7921,46.0748,314.1212,0,999,4180,0.00095961,0.00027271,0,3728441,0 SPACEBEE-133,1 52183U 22033AC  23001.18508589  .00027271  00000-0  95961-3 0  9991,2 52183  97.3680  84.7921 0008739  46.0748 314.1212 15.29268168 41806,2022-033AC,52183,6856.136,94.163,483.992,472.009,1,2023/1/1
GENERATED VIA SPACETRACK.ORG API,18 SPCS,52183,SPACEBEE-133,PAYLOAD,U,22033AC,2023/1/1 10:43,878208,15.29282875,0.0008692,97.3677,85.051,45.3942,314.8005,0,999,4185,0.00096392,0.00027406,0,3728759,0 SPACEBEE-133,1 52183U 22033AC  23001.44681572  .00027406  00000-0  96392-3 0  9993,2 52183  97.3677  85.0510 0008692  45.3942 314.8005 15.29282875 41859,2022-033AC,52183,6856.092,94.162,483.916,471.997,1,2023/1/2
GENERATED VIA SPACETRACK.ORG API,18 SPCS,52183,SPACEBEE-133,PAYLOAD,U,22033AC,2023/1/1 17:00,182592,15.29295261,0.0008675,97.3678,85.3102,44.7443,315.4496,0,999,4189,0.00085969,0.00024434,0,3728952,0 SPACEBEE-133,1 52183U 22033AC  23001.70854378  .00024434  00000-0  85969-3 0  9994,2 52183  97.3678  85.3102 0008675  44.7443 315.4496 15.29295261 41898,2022-033AC,52183,6856.055,94.161,483.867,471.972,1,2023/1/3
GENERATED VIA SPACETRACK.ORG API,18 SPCS,52183,SPACEBEE-133,PAYLOAD,U,22033AC,2023/1/2 11:50,805792,15.29338849,0.0008657,97.368,86.0882,42.0623,318.128,0,999,4200,0.00095686,0.00027251,0,3729552,0 SPACEBEE-133,1 52183U 22033AC  23002.49371303  .00027251  00000-0  95686-3 0  9990,2 52183  97.3680  86.0882 0008657  42.0623 318.1280 15.29338849 42000,2022-033AC,52183,6855.925,94.158,483.725,471.854,1,2023/1/4
GENERATED VIA SPACETRACK.ORG API,18 SPCS,52183,SPACEBEE-133,PAYLOAD,U,22033AC,2023/1/2 11:50,805792,15.29338849,0.0008657,97.368,86.0882,42.0623,318.128,0,999,4201,0.00095686,0.00027251,0,3729583,0 SPACEBEE-133,1 52183U 22033AC  23002.49371303  .00027251  00000-0  95686-3 0  9990,2 52183  97.3680  86.0882 0008657  42.0623 318.1280 15.29338849 42011,2022-033AC,52183,6855.925,94.158,483.725,471.854,1,2023/1/5
GENERATED VIA SPACETRACK.ORG API,18 SPCS,52183,SPACEBEE-133,PAYLOAD,U,22033AC,2023/1/3 11:24,747456,15.2938335,0.0008602,97.368,87.0606,38.9599,321.226,0,999,4215,0.00086002,0.0002451,0,3730909,0 SPACEBEE-133,1 52183U 22033AC  23003.47514754  .00024510  00000-0  86002-3 0  9995,2 52183  97.3680  87.0606 0008602  38.9599 321.2260 15.29383350 42157,2022-033AC,52183,6855.792,94.156,483.554,471.759,1,2023/1/6
GENERATED VIA SPACETRACK.ORG API,18 SPCS,52183,SPACEBEE-133,PAYLOAD,U,22033AC,2023/1/3 11:24,747456,15.2938335,0.0008602,97.368,87.0606,38.9599,321.226,0,999,4216,0.00086002,0.0002451,0,3730926,0 SPACEBEE-133,1 52183U 22033AC  23003.47514754  .00024510  00000-0  86002-3 0  9995,2 52183  97.3680  87.0606 0008602  38.9599 321.2260 15.29383350 42168,2022-033AC,52183,6855.792,94.156,483.554,471.759,1,2023/1/7
GENERATED VIA SPACETRACK.ORG API,18 SPCS,52183,SPACEBEE-133,PAYLOAD,U,22033AC,2023/1/4 4:40,844736,15.294201,0.0008579,97.3679,87.7739,36.2896,323.8924,0,999,4227,0.0010246,0.00029265,0,3731823,0 SPACEBEE-133,1 52183U 22033AC  23004.19484774  .00029265  00000-0  10246-2 0  9991,2 52183  97.3679  87.7739 0008579  36.2896 323.8924 15.29420100 42276,2022-033AC,52183,6855.682,94.153,483.428,471.665,1,2023/1/8
GENERATED VIA SPACETRACK.ORG API,18 SPCS,52183,SPACEBEE-133,PAYLOAD,U,22033AC,2023/1/5 4:13,686208,15.29482459,0.0008524,97.3679,88.7464,32.8969,327.28,0,999,4241,0.001052,0.00030111,0,3732630,0 SPACEBEE-133,1 52183U 22033AC  23005.17622322  .00030111  00000-0  10520-2 0  9990,2 52183  97.3679  88.7464 0008524  32.8969 327.2800 15.29482459 42417,2022-033AC,52183,6855.495,94.149,483.204,471.517,1,2023/1/9
GENERATED VIA SPACETRACK.ORG API,18 SPCS,52183,SPACEBEE-133,PAYLOAD,U,22033AC,2023/1/5 12:04,507744,15.29499507,0.0008477,97.3679,89.0702,32.0884,328.0871,0,999,4247,0.00087195,0.0002494,0,3732939,0 SPACEBEE-133,1 52183U 22033AC  23005.50333921  .00024940  00000-0  87195-3 0  9997,2 52183  97.3679  89.0702 0008477  32.0884 328.0871 15.29499507 42476,2022-033AC,52183,6855.444,94.148,483.121,471.498,1,2023/1/10
GENERATED VIA SPACETRACK.ORG API,18 SPCS,52183,SPACEBEE-133,PAYLOAD,U,22033AC,2023/1/6 5:21,289696,15.29552981,0.0008481,97.3677,89.7835,29.7684,330.4037,0,999,4257,0.0011114,0.00031891,0,3733535,0 SPACEBEE-133,1 52183U 22033AC  23006.22297789  .00031891  00000-0  11114-2 0  9998,2 52183  97.3677  89.7835 0008481  29.7684 330.4037 15.29552981 42572,2022-033AC,52183,6855.285,94.145,482.964,471.336,1,2023/1/11
GENERATED VIA SPACETRACK.ORG API,18 SPCS,52183,SPACEBEE-133,PAYLOAD,U,22033AC,2023/1/6 11:37,560064,15.29569727,0.0008476,97.368,90.0427,28.834,331.3367,0,999,4262,0.0010945,0.00031419,0,3734255,0 SPACEBEE-133,1 52183U 22033AC  23006.48465926  .00031419  00000-0  10945-2 0  9993,2 52183  97.3680  90.0427 0008476  28.8340 331.3367 15.29569727 42629,2022-033AC,52183,6855.235,94.144,482.91,471.289,1,2023/1/12
GENERATED VIA SPACETRACK.ORG API,18 SPCS,52183,SPACEBEE-133,PAYLOAD,U,22033AC,2023/1/7 4:54,855424,15.29612228,0.000841,97.3674,90.7557,26.2901,333.8765,0,999,4273,0.0010355,0.00029753,0,3735161,0 SPACEBEE-133,1 52183U 22033AC  23007.20426916  .00029753  00000-0  10355-2 0  9993,2 52183  97.3674  90.7557 0008410  26.2901 333.8765 15.29612228 42732,2022-033AC,52183,6855.108,94.142,482.738,471.207,1,2023/1/13
GENERATED VIA SPACETRACK.ORG API,18 SPCS,52183,SPACEBEE-133,PAYLOAD,U,22033AC,2023/1/7 15:53,471744,15.29638011,0.0008371,97.3672,91.2095,24.5726,335.5912,0,999,4279,0.0010188,0.00029293,0,3735406,0 SPACEBEE-133,1 52183U 22033AC  23007.66219296  .00029293  00000-0  10188-2 0  9997,2 52183  97.3672  91.2095 0008371  24.5726 335.5912 15.29638011 42792,2022-033AC,52183,6855.031,94.14,482.634,471.157,1,2023/1/14
GENERATED VIA SPACETRACK.ORG API,18 SPCS,52183,SPACEBEE-133,PAYLOAD,U,22033AC,2023/1/7 15:53,471744,15.29638011,0.0008371,97.3672,91.2095,24.5726,335.5912,0,999,4280,0.0010188,0.00029293,0,3735488,0 SPACEBEE-133,1 52183U 22033AC  23007.66219296  .00029293  00000-0  10188-2 0  9997,2 52183  97.3672  91.2095 0008371  24.5726 335.5912 15.29638011 42804,2022-033AC,52183,6855.031,94.14,482.634,471.157,1,2023/1/15
GENERATED VIA SPACETRACK.ORG API,18 SPCS,52183,SPACEBEE-133,PAYLOAD,U,22033AC,2023/1/8 4:27,338400,15.29668493,0.0008334,97.3671,91.7281,22.4905,337.67,0,999,4288,0.0010732,0.00030897,0,3736235,0 SPACEBEE-133,1 52183U 22033AC  23008.18552475  .00030897  00000-0  10732-2 0  9991,2 52183  97.3671  91.7281 0008334  22.4905 337.6700 15.29668493 42883,2022-033AC,52183,6854.94,94.138,482.517,471.092,1,2023/1/16
GENERATED VIA SPACETRACK.ORG API,18 SPCS,52183,SPACEBEE-133,PAYLOAD,U,22033AC,2023/1/9 4:00,573600,15.29729169,0.0008302,97.3667,92.7005,19.5091,340.6466,0,999,4302,0.0011212,0.00032348,0,3736902,0 SPACEBEE-133,1 52183U 22033AC  23009.16674275  .00032348  00000-0  11212-2 0  9990,2 52183  97.3667  92.7005 0008302  19.5091 340.6466 15.29729169 43029,2022-033AC,52183,6854.758,94.134,482.314,470.932,1,2023/1/17
GENERATED VIA SPACETRACK.ORG API,18 SPCS,52183,SPACEBEE-133,PAYLOAD,U,22033AC,2023/1/9 11:51,891104,15.2974681,0.0008248,97.3666,93.0244,18.5056,341.6483,0,999,4308,0.0010042,0.00028967,0,3737263,0 SPACEBEE-133,1 52183U 22033AC  23009.49380661  .00028967  00000-0  10042-2 0  9991,2 52183  97.3666  93.0244 0008248  18.5056 341.6483 15.29746810 43084,2022-033AC,52183,6854.706,94.133,482.224,470.917,1,2023/1/18
GENERATED VIA SPACETRACK.ORG API,18 SPCS,52183,SPACEBEE-133,PAYLOAD,U,22033AC,2023/1/10 5:07,975520,15.29789766,0.0008231,97.3661,93.7377,15.8371,344.3125,0,999,4318,0.0010143,0.00029299,0,3738483,0 SPACEBEE-133,1 52183U 22033AC  23010.21333305  .00029299  00000-0  10143-2 0  9997,2 52183  97.3661  93.7377 0008231  15.8371 344.3125 15.29789766 43186,2022-033AC,52183,6854.577,94.131,482.084,470.8,1,2023/1/19
GENERATED VIA SPACETRACK.ORG API,18 SPCS,52183,SPACEBEE-133,PAYLOAD,U,22033AC,2023/1/10 11:23,725088,15.29806556,0.0008177,97.3658,93.9967,15.1348,345.0135,0,999,4323,0.0010464,0.00030248,0,3739038,0 SPACEBEE-133,1 52183U 22033AC  23010.47497367  .00030248  00000-0  10464-2 0  9996,2 52183  97.3658  93.9967 0008177  15.1348 345.0135 15.29806556 43237,2022-033AC,52183,6854.527,94.13,481.997,470.787,1,2023/1/20
GENERATED VIA SPACETRACK.ORG API,18 SPCS,52183,SPACEBEE-133,PAYLOAD,U,22033AC,2023/1/11 4:40,220096,15.29857297,0.000817,97.3656,94.71,12.3517,347.7922,0,999,4333,0.0012052,0.00034925,0,3740025,0 SPACEBEE-133,1 52183U 22033AC  23011.19447014  .00034925  00000-0  12052-2 0  9991,2 52183  97.3656  94.7100 0008170  12.3517 347.7922 15.29857297 43335,2022-033AC,52183,6854.376,94.126,481.841,470.64,1,2023/1/21
GENERATED VIA SPACETRACK.ORG API,18 SPCS,52183,SPACEBEE-133,PAYLOAD,U,22033AC,2023/1/11 4:40,220096,15.29857297,0.000817,97.3656,94.71,12.3517,347.7922,0,999,4334,0.0012052,0.00034925,0,3740054,0 SPACEBEE-133,1 52183U 22033AC  23011.19447014  .00034925  00000-0  12052-2 0  9991,2 52183  97.3656  94.7100 0008170  12.3517 347.7922 15.29857297 43346,2022-033AC,52183,6854.376,94.126,481.841,470.64,1,2023/1/22
GENERATED VIA SPACETRACK.ORG API,18 SPCS,52183,SPACEBEE-133,PAYLOAD,U,22033AC,2023/1/11 15:39,375424,15.2989091,0.0008132,97.3656,95.1637,10.6354,349.5057,0,999,4341,0.0012605,0.00036577,0,3740419,0 SPACEBEE-133,1 52183U 22033AC  23011.65231916  .00036577  00000-0  12605-2 0  9993,2 52183  97.3656  95.1637 0008132  10.6354 349.5057 15.29890910 43410,2022-033AC,52183,6854.275,94.124,481.714,470.566,1,2023/1/23
